{"type": "FeatureCollection", "features": [ {"type": "Feature", "properties": {"norad_id": 34031, "name": "COSMOS 2251 DEB", "group": "cosmos-2251-debris", "lat": 73.74438288138488, "lon": -143.68362642298501, "alt_km": 702.7953937303519, "timestamp": "2025-12-12T03:50:52.811896+00:00", "meta": {"OBJECT_NAME": "COSMOS 2251 DEB", "OBJECT_ID": "1993-036HS", "EPOCH": "2025-12-11T11:20:25.308960", "MEAN_MOTION": 14.59664578, "ECCENTRICITY": 0.00229798, "INCLINATION": 74.0125, "RA_OF_ASC_NODE": 138.128, "ARG_OF_PERICENTER": 258.4801, "MEAN_ANOMALY": 175.7677, "EPHEMERIS_TYPE": 0, "CLASSIFICATION_TYPE": "U", "NORAD_CAT_ID": 34031, "ELEMENT_SET_NO": 999, "REV_AT_EPOCH": 88547, "BSTAR": 0.0025225024, "MEAN_MOTION_DOT": 0.00012053, "MEAN_MOTION_DDOT": 0}, "tle": {"line1": "1 34031U 93036HS  25345.47251515  .00012053  00000+0  25225-2 0  9999", "line2": "2 34031  74.0125 138.1280 0022979 258.4801 175.7677 14.59664578885479"}}, "geometry": {"type": "Point", "coordinates": [-143.68362642298501, 73.74438288138488]}}, {"type": "Feature", "properties": {"norad_id": 34035, "name": "COSMOS 2251 DEB", "group": "cosmos-2251-debris", "lat": -73.53319149496271, "lon": -114.64327305977535, "alt_km": 723.9511041710457, "timestamp": "2025-12-12T03:50:52.811906+00:00", "meta": {"OBJECT_NAME": "COSMOS 2251 DEB", "OBJECT_ID": "1993-036HW", "EPOCH": "2025-12-11T10:39:36.504864", "MEAN_MOTION": 14.51915843, "ECCENTRICITY": 0.00446235, "INCLINATION": 74.0663, "RA_OF_ASC_NODE": 351.5755, "ARG_OF_PERICENTER": 353.3456, "MEAN_ANOMALY": 131.1923, "EPHEMERIS_TYPE": 0, "CLASSIFICATION_TYPE": "U", "NORAD_CAT_ID": 34035, "ELEMENT_SET_NO": 999, "REV_AT_EPOCH": 87947, "BSTAR": 0.0028998617, "MEAN_MOTION_DOT": 0.00011839, "MEAN_MOTION_DDOT": 0}, "tle": {"line1": "1 34035U 93036HW  25345.44417251  .00011839  00000+0  28999-2 0  9993", "line2": "2 34035  74.0663 351.5755 0044623 353.3456 131.1923 14.51915843879478"}}, "geometry": {"type": "Point", "coordinates": [-114.64327305977535, -73.53319149496271]}}, {"type": "Feature", "properties": {"norad_id": 34036, "name": "COSMOS 2251 DEB", "group": "cosmos-2251-debris", "lat": 69.03612803529451, "lon": -161.15054489380125, "alt_km": 578.3591208349699, "timestamp": "2025-12-12T03:50:52.811916+00:00", "meta": {"OBJECT_NAME": "COSMOS 2251 DEB", "OBJECT_ID": "1993-036HX", "EPOCH": "2025-12-10T06:31:52.361184", "MEAN_MOTION": 14.9462929, "ECCENTRICITY": 0.0012901, "INCLINATION": 74.0201, "RA_OF_ASC_NODE": 154.2466, "ARG_OF_PERICENTER": 187.8957, "MEAN_ANOMALY": 172.2026, "EPHEMERIS_TYPE": 0, "CLASSIFICATION_TYPE": "U", "NORAD_CAT_ID": 34036, "ELEMENT_SET_NO": 999, "REV_AT_EPOCH": 88533, "BSTAR": 0.0061833, "MEAN_MOTION_DOT": 0.0006772, "MEAN_MOTION_DDOT": 0}, "tle": {"line1": "1 34036U 93036HX  25344.27213381  .00067720  00000+0  61833-2 0  9996", "line2": "2 34036  74.0201 154.2466 0012901 187.8957 172.2026 14.94629290885331"}}, "geometry": {"type": "Point", "coordinates": [-161.15054489380125, 69.03612803529451]}}, {"type": "Feature", "properties": {"norad_id": 34037, "name": "COSMOS 2251 DEB", "group": "cosmos-2251-debris", "lat": -72.19743866407799, "lon": -65.5636218970768, "alt_km": 818.1477150999017, "timestamp": "2025-12-12T03:50:52.811926+00:00", "meta": {"OBJECT_NAME": "COSMOS 2251 DEB", "OBJECT_ID": "1993-036HY", "EPOCH": "2025-12-11T14:55:10.207488", "MEAN_MOTION": 14.34661258, "ECCENTRICITY": 0.00520191, "INCLINATION": 74.0522, "RA_OF_ASC_NODE": 52.4888, "ARG_OF_PERICENTER": 102.8413, "MEAN_ANOMALY": 257.8558, "EPHEMERIS_TYPE": 0, "CLASSIFICATION_TYPE": "U", "NORAD_CAT_ID": 34037, "ELEMENT_SET_NO": 999, "REV_AT_EPOCH": 87701, "BSTAR": 0.00074681976, "MEAN_MOTION_DOT": 2.12e-05, "MEAN_MOTION_DDOT": 0}, "tle": {"line1": "1 34037U 93036HY  25345.62164592  .00002120  00000+0  74682-3 0  9996", "line2": "2 34037  74.0522  52.4888 0052019 102.8413 257.8558 14.34661258877013"}}, "geometry": {"type": "Point", "coordinates": [-65.5636218970768, -72.19743866407799]}}, {"type": "Feature", "properties": {"norad_id": 34040, "name": "COSMOS 2251 DEB", "group": "cosmos-2251-debris", "lat": -67.56869916333926, "lon": 22.62930989238033, "alt_km": 1023.0811807946811, "timestamp": "2025-12-12T03:50:52.811936+00:00", "meta": {"OBJECT_NAME": "COSMOS 2251 DEB", "OBJECT_ID": "1993-036JB", "EPOCH": "2025-12-11T12:24:22.438368", "MEAN_MOTION": 13.68372476, "ECCENTRICITY": 0.03429941, "INCLINATION": 73.9559, "RA_OF_ASC_NODE": 67.8837, "ARG_OF_PERICENTER": 21.5005, "MEAN_ANOMALY": 340.0122, "EPHEMERIS_TYPE": 0, "CLASSIFICATION_TYPE": "U", "NORAD_CAT_ID": 34040, "ELEMENT_SET_NO": 999, "REV_AT_EPOCH": 83583, "BSTAR": 0.00062062903, "MEAN_MOTION_DOT": 7.78e-06, "MEAN_MOTION_DDOT": 0}, "tle": {"line1": "1 34040U 93036JB  25345.51692637  .00000778  00000+0  62063-3 0  9991", "line2": "2 34040  73.9559  67.8837 0342994  21.5005 340.0122 13.68372476835830"}}, "geometry": {"type": "Point", "coordinates": [22.62930989238033, -67.56869916333926]}}, {"type": "Feature", "properties": {"norad_id": 34045, "name": "COSMOS 2251 DEB", "group": "cosmos-2251-debris", "lat": -49.90780942834496, "lon": -67.98187929257348, "alt_km": 784.078821355165, "timestamp": "2025-12-12T03:50:52.811946+00:00", "meta": {"OBJECT_NAME": "COSMOS 2251 DEB", "OBJECT_ID": "1993-036JG", "EPOCH": "2025-12-11T08:42:05.375808", "MEAN_MOTION": 14.34067802, "ECCENTRICITY": 0.00256109, "INCLINATION": 74.0391, "RA_OF_ASC_NODE": 313.3515, "ARG_OF_PERICENTER": 37.2109, "MEAN_ANOMALY": 113.4778, "EPHEMERIS_TYPE": 0, "CLASSIFICATION_TYPE": "U", "NORAD_CAT_ID": 34045, "ELEMENT_SET_NO": 999, "REV_AT_EPOCH": 88013, "BSTAR": 0.00016975693, "MEAN_MOTION_DOT": 4.5e-06, "MEAN_MOTION_DDOT": 0}, "tle": {"line1": "1 34045U 93036JG  25345.36256222  .00000450  00000+0  16976-3 0  9994", "line2": "2 34045  74.0391 313.3515 0025610  37.2109 113.4778 14.34067802880135"}}, "geometry": {"type": "Point", "coordinates": [-67.98187929257348, -49.90780942834496]}}, {"type": "Feature", "properties": {"norad_id": 34046, "name": "COSMOS 2251 DEB", "group": "cosmos-2251-debris", "lat": -74.01467844787116, "lon": -75.87717562832236, "alt_km": 797.0547101370385, "timestamp": "2025-12-12T03:50:52.811957+00:00", "meta": {"OBJECT_NAME": "COSMOS 2251 DEB", "OBJECT_ID": "1993-036JH", "EPOCH": "2025-12-11T12:21:02.723904", "MEAN_MOTION": 14.46458209, "ECCENTRICITY": 0.00745465, "INCLINATION": 74.0398, "RA_OF_ASC_NODE": 12.7601, "ARG_OF_PERICENTER": 96.5532, "MEAN_ANOMALY": 53.025, "EPHEMERIS_TYPE": 0, "CLASSIFICATION_TYPE": "U", "NORAD_CAT_ID": 34046, "ELEMENT_SET_NO": 999, "REV_AT_EPOCH": 87808, "BSTAR": 0.0019953845, "MEAN_MOTION_DOT": 7.409e-05, "MEAN_MOTION_DDOT": 0}, "tle": {"line1": "1 34046U 93036JH  25345.51461486  .00007409  00000+0  19954-2 0  9991", "line2": "2 34046  74.0398  12.7601 0074546  96.5532  53.0250 14.46458209878082"}}, "geometry": {"type": "Point", "coordinates": [-75.87717562832236, -74.01467844787116]}}, {"type": "Feature", "properties": {"norad_id": 34050, "name": "COSMOS 2251 DEB", "group": "cosmos-2251-debris", "lat": -65.94793041133988, "lon": -129.22637817974172, "alt_km": 1069.9017549382597, "timestamp": "2025-12-12T03:50:52.811967+00:00", "meta": {"OBJECT_NAME": "COSMOS 2251 DEB", "OBJECT_ID": "1993-036JM", "EPOCH": "2025-12-11T11:42:40.980384", "MEAN_MOTION": 13.96178534, "ECCENTRICITY": 0.02145504, "INCLINATION": 74.0884, "RA_OF_ASC_NODE": 12.1997, "ARG_OF_PERICENTER": 76.8357, "MEAN_ANOMALY": 36.5639, "EPHEMERIS_TYPE": 0, "CLASSIFICATION_TYPE": "U", "NORAD_CAT_ID": 34050, "ELEMENT_SET_NO": 999, "REV_AT_EPOCH": 85414, "BSTAR": 0.00080694692, "MEAN_MOTION_DOT": 1.324e-05, "MEAN_MOTION_DDOT": 0}, "tle": {"line1": "1 34050U 93036JM  25345.48797431  .00001324  00000+0  80695-3 0  9995", "line2": "2 34050  74.0884  12.1997 0214550  76.8357  36.5639 13.96178534854148"}}, "geometry": {"type": "Point", "coordinates": [-129.22637817974172, -65.94793041133988]}}, {"type": "Feature", "properties": {"norad_id": 34053, "name": "COSMOS 2251 DEB", "group": "cosmos-2251-debris", "lat": -40.4284227671137, "lon": -131.1910927224771, "alt_km": 983.268025291527, "timestamp": "2025-12-12T03:50:52.811977+00:00", "meta": {"OBJECT_NAME": "COSMOS 2251 DEB", "OBJECT_ID": "1993-036JQ", "EPOCH": "2025-12-11T03:08:04.459488", "MEAN_MOTION": 13.49157138, "ECCENTRICITY": 0.04221281, "INCLINATION": 73.8443, "RA_OF_ASC_NODE": 244.7642, "ARG_OF_PERICENTER": 33.5797, "MEAN_ANOMALY": 329.131, "EPHEMERIS_TYPE": 0, "CLASSIFICATION_TYPE": "U", "NORAD_CAT_ID": 34053, "ELEMENT_SET_NO": 999, "REV_AT_EPOCH": 82662, "BSTAR": 0.0010512613, "MEAN_MOTION_DOT": 1.125e-05, "MEAN_MOTION_DDOT": 0}, "tle": {"line1": "1 34053U 93036JQ  25345.13060717  .00001125  00000+0  10513-2 0  9990", "line2": "2 34053  73.8443 244.7642 0422128  33.5797 329.1310 13.49157138826623"}}, "geometry": {"type": "Point", "coordinates": [-131.1910927224771, -40.4284227671137]}}, {"type": "Feature", "properties": {"norad_id": 34056, "name": "COSMOS 2251 DEB", "group": "cosmos-2251-debris", "lat": -14.072593537829304, "lon": 73.30488637522326, "alt_km": 895.7055719186292, "timestamp": "2025-12-12T03:50:52.811987+00:00", "meta": {"OBJECT_NAME": "COSMOS 2251 DEB", "OBJECT_ID": "1993-036JT", "EPOCH": "2025-12-11T12:46:05.942208", "MEAN_MOTION": 14.20549713, "ECCENTRICITY": 0.01241583, "INCLINATION": 74.0592, "RA_OF_ASC_NODE": 78.5364, "ARG_OF_PERICENTER": 126.6961, "MEAN_ANOMALY": 247.7443, "EPHEMERIS_TYPE": 0, "CLASSIFICATION_TYPE": "U", "NORAD_CAT_ID": 34056, "ELEMENT_SET_NO": 999, "REV_AT_EPOCH": 86394, "BSTAR": 0.0017727331, "MEAN_MOTION_DOT": 4.096e-05, "MEAN_MOTION_DDOT": 0}, "tle": {"line1": "1 34056U 93036JT  25345.53201322  .00004096  00000+0  17727-2 0  9990", "line2": "2 34056  74.0592  78.5364 0124158 126.6961 247.7443 14.20549713863949"}}, "geometry": {"type": "Point", "coordinates": [73.30488637522326, -14.072593537829304]}}]}